[{"OBJECT_NAME":"STARLINK-31702","OBJECT_ID":"2024-076X","EPOCH":"2026-03-09T04:45:32.583456","MEAN_MOTION":15.27570248,"ECCENTRICITY":0.00016186,"INCLINATION":43.003,"RA_OF_ASC_NODE":12.1073,"ARG_OF_PERICENTER":250.6764,"MEAN_ANOMALY":109.3912,"EPHEMERIS_TYPE":0,"CLASSIFICATION_TYPE":"U","NORAD_CAT_ID":59585,"ELEMENT_SET_NO":999,"REV_AT_EPOCH":10642,"BSTAR":-7.2845953e-5,"MEAN_MOTION_DOT":-2.266e-5,"MEAN_MOTION_DDOT":0},{"OBJECT_NAME":"TRANSPORTER-14 OBJECT AC","OBJECT_ID":"2025-135AC","EPOCH":"2026-03-09T19:42:26.378496","MEAN_MOTION":15.26845403,"ECCENTRICITY":0.00010083,"INCLINATION":97.4518,"RA_OF_ASC_NODE":185.7428,"ARG_OF_PERICENTER":268.0523,"MEAN_ANOMALY":92.06,"EPHEMERIS_TYPE":0,"CLASSIFICATION_TYPE":"U","NORAD_CAT_ID":64554,"ELEMENT_SET_NO":999,"REV_AT_EPOCH":3982,"BSTAR":0.0009323368,"MEAN_MOTION_DOT":0.00024574,"MEAN_MOTION_DDOT":0}]
